[{"OBJECT_NAME":"JY1SAT (JO-97)","OBJECT_ID":"2018-099AX","EPOCH":"2026-03-09T16:28:19.890048","MEAN_MOTION":15.30302629,"ECCENTRICITY":0.00047232,"INCLINATION":97.4249,"RA_OF_ASC_NODE":131.3625,"ARG_OF_PERICENTER":256.6795,"MEAN_ANOMALY":103.3919,"EPHEMERIS_TYPE":0,"CLASSIFICATION_TYPE":"U","NORAD_CAT_ID":43803,"ELEMENT_SET_NO":999,"REV_AT_EPOCH":39839,"BSTAR":0.00060804308,"MEAN_MOTION_DOT":0.00017774,"MEAN_MOTION_DDOT":0},{"OBJECT_NAME":"STARLINK-31138","OBJECT_ID":"2024-012V","EPOCH":"2026-03-09T07:01:41.885760","MEAN_MOTION":15.27617781,"ECCENTRICITY":4.278e-5,"INCLINATION":42.9963,"RA_OF_ASC_NODE":167.6203,"ARG_OF_PERICENTER":78.5636,"MEAN_ANOMALY":281.5264,"EPHEMERIS_TYPE":0,"CLASSIFICATION_TYPE":"U","NORAD_CAT_ID":58806,"ELEMENT_SET_NO":999,"REV_AT_EPOCH":12117,"BSTAR":-0.00027713333,"MEAN_MOTION_DOT":-7.888e-5,"MEAN_MOTION_DDOT":0}]
