JY1SAT (JO-97)          
1 43803U 18099AX  26068.68634132  .00017774  00000+0  60804-3 0  9996
2 43803  97.4249 131.3625 0004723 256.6795 103.3919 15.30302628398390
STARLINK-31138          
1 58806U 24012V   26068.29284590 -.00007888  00000+0 -27713-3 0  9992
2 58806  42.9963 167.6203 0000427  78.5636 281.5264 15.27617781121170
